{
  "type": "FeatureCollection",
  "features": [
    {
      "type": "Feature",
      "properties": {
        "norad_id": 31307,
        "name": "GALAXY 17 (G-17)",
        "group": "intelsat",
        "lat": 1.484865061713841,
        "lon": -134.3547080943551,
        "alt_km": 35766.21851276344,
        "timestamp": "2025-12-21T14:40:47.578276+00:00",
        "meta_object_name": "GALAXY 17 (G-17)",
        "meta_object_id": "2007-016B",
        "meta_epoch": "2025-12-21T06:25:04.356192",
        "meta_mean_motion": 1.00270184,
        "meta_eccentricity": 0.00053382,
        "meta_inclination": 2.52,
        "meta_ra_of_asc_node": 82.1898,
        "meta_arg_of_pericenter": 170.2196,
        "meta_mean_anomaly": 208.9738,
        "meta_ephemeris_type": 0,
        "meta_classification_type": "U",
        "meta_norad_cat_id": 31307,
        "meta_element_set_no": 999,
        "meta_rev_at_epoch": 6802,
        "meta_bstar": 0,
        "meta_mean_motion_dot": -1.85e-06,
        "meta_mean_motion_ddot": 0,
        "tle_line1": "1 31307U 07016B   25355.26741153 -.00000185  00000+0  00000+0 0  9990",
        "tle_line2": "2 31307   2.5200  82.1898 0005338 170.2196 208.9738  1.00270184 68022"
      },
      "geometry": {
        "type": "Point",
        "coordinates": [
          -134.3547080943551,
          1.484865061713841
        ]
      }
    },
    {
      "type": "Feature",
      "properties": {
        "norad_id": 31862,
        "name": "DIRECTV 10",
        "group": "intelsat",
        "lat": 0.00017795932394206365,
        "lon": -152.1876494362783,
        "alt_km": 35785.39131632221,
        "timestamp": "2025-12-21T14:40:47.578288+00:00",
        "meta_object_name": "DIRECTV 10",
        "meta_object_id": "2007-032A",
        "meta_epoch": "2025-12-20T21:18:05.647104",
        "meta_mean_motion": 1.00270377,
        "meta_eccentricity": 2.73e-05,
        "meta_inclination": 0.0073,
        "meta_ra_of_asc_node": 111.6707,
        "meta_arg_of_pericenter": 78.7977,
        "meta_mean_anomaly": 115.9664,
        "meta_ephemeris_type": 0,
        "meta_classification_type": "U",
        "meta_norad_cat_id": 31862,
        "meta_element_set_no": 999,
        "meta_rev_at_epoch": 4380,
        "meta_bstar": 0,
        "meta_mean_motion_dot": -8e-07,
        "meta_mean_motion_ddot": 0,
        "tle_line1": "1 31862U 07032A   25354.88756536 -.00000080  00000+0  00000+0 0  9996",
        "tle_line2": "2 31862   0.0073 111.6707 0000273  78.7977 115.9664  1.00270377 43806"
      },
      "geometry": {
        "type": "Point",
        "coordinates": [
          -152.1876494362783,
          0.00017795932394206365
        ]
      }
    },
    {
      "type": "Feature",
      "properties": {
        "norad_id": 32253,
        "name": "INTELSAT 11 (IS-11)",
        "group": "intelsat",
        "lat": 2.6018602453508755,
        "lon": 137.16708930357154,
        "alt_km": 36145.31194267168,
        "timestamp": "2025-12-21T14:40:47.578300+00:00",
        "meta_object_name": "INTELSAT 11 (IS-11)",
        "meta_object_id": "2007-044B",
        "meta_epoch": "2025-12-21T03:49:25.521888",
        "meta_mean_motion": 0.99052487,
        "meta_eccentricity": 0.00085314,
        "meta_inclination": 3.1008,
        "meta_ra_of_asc_node": 80.884,
        "meta_arg_of_pericenter": 169.2653,
        "meta_mean_anomaly": 85.8492,
        "meta_ephemeris_type": 0,
        "meta_classification_type": "U",
        "meta_norad_cat_id": 32253,
        "meta_element_set_no": 999,
        "meta_rev_at_epoch": 6668,
        "meta_bstar": 0,
        "meta_mean_motion_dot": -8.1e-07,
        "meta_mean_motion_ddot": 0,
        "tle_line1": "1 32253U 07044B   25355.15932317 -.00000081  00000+0  00000+0 0  9999",
        "tle_line2": "2 32253   3.1008  80.8840 0008531 169.2653  85.8492  0.99052487 66682"
      },
      "geometry": {
        "type": "Point",
        "coordinates": [
          137.16708930357154,
          2.6018602453508755
        ]
      }
    },
    {
      "type": "Feature",
      "properties": {
        "norad_id": 32388,
        "name": "HORIZONS-2",
        "group": "intelsat",
        "lat": 0.9207883362801698,
        "lon": -123.18009416079397,
        "alt_km": 35771.22364173476,
        "timestamp": "2025-12-21T14:40:47.578312+00:00",
        "meta_object_name": "HORIZONS-2",
        "meta_object_id": "2007-063B",
        "meta_epoch": "2025-12-21T05:59:55.743072",
        "meta_mean_motion": 1.00271391,
        "meta_eccentricity": 0.00046033,
        "meta_inclination": 2.1424,
        "meta_ra_of_asc_node": 82.8699,
        "meta_arg_of_pericenter": 194.2748,
        "meta_mean_anomaly": 189.1264,
        "meta_ephemeris_type": 0,
        "meta_classification_type": "U",
        "meta_norad_cat_id": 32388,
        "meta_element_set_no": 999,
        "meta_rev_at_epoch": 6603,
        "meta_bstar": 0,
        "meta_mean_motion_dot": -2.32e-06,
        "meta_mean_motion_ddot": 0,
        "tle_line1": "1 32388U 07063B   25355.24995073 -.00000232  00000+0  00000+0 0  9995",
        "tle_line2": "2 32388   2.1424  82.8699 0004603 194.2748 189.1264  1.00271391 66039"
      },
      "geometry": {
        "type": "Point",
        "coordinates": [
          -123.18009416079397,
          0.9207883362801698
        ]
      }
    },
    {
      "type": "Feature",
      "properties": {
        "norad_id": 32729,
        "name": "DIRECTV 11",
        "group": "intelsat",
        "lat": -0.019398657847598526,
        "lon": -148.57446942927032,
        "alt_km": 35785.94302499381,
        "timestamp": "2025-12-21T14:40:47.578324+00:00",
        "meta_object_name": "DIRECTV 11",
        "meta_object_id": "2008-013A",
        "meta_epoch": "2025-12-21T05:52:41.437056",
        "meta_mean_motion": 1.00268906,
        "meta_eccentricity": 3.963e-05,
        "meta_inclination": 0.047,
        "meta_ra_of_asc_node": 197.3093,
        "meta_arg_of_pericenter": 319.5386,
        "meta_mean_anomaly": 282.1989,
        "meta_ephemeris_type": 0,
        "meta_classification_type": "U",
        "meta_norad_cat_id": 32729,
        "meta_element_set_no": 999,
        "meta_rev_at_epoch": 4380,
        "meta_bstar": 0,
        "meta_mean_motion_dot": -1.02e-06,
        "meta_mean_motion_ddot": 0,
        "tle_line1": "1 32729U 08013A   25355.24492404 -.00000102  00000+0  00000+0 0  9996",
        "tle_line2": "2 32729   0.0470 197.3093 0000396 319.5386 282.1989  1.00268906 43807"
      },
      "geometry": {
        "type": "Point",
        "coordinates": [
          -148.57446942927032,
          -0.019398657847598526
        ]
      }
    },
    {
      "type": "Feature",
      "properties": {
        "norad_id": 32951,
        "name": "GALAXY 18 (G-18)",
        "group": "intelsat",
        "lat": 0.014204131166734545,
        "lon": -172.42595788836906,
        "alt_km": 35785.79023937671,
        "timestamp": "2025-12-21T14:40:47.578336+00:00",
        "meta_object_name": "GALAXY 18 (G-18)",
        "meta_object_id": "2008-024A",
        "meta_epoch": "2025-12-21T04:32:38.609664",
        "meta_mean_motion": 1.00271174,
        "meta_eccentricity": 0.00028379,
        "meta_inclination": 0.0174,
        "meta_ra_of_asc_node": 59.6193,
        "meta_arg_of_pericenter": 215.9312,
        "meta_mean_anomaly": 119.6116,
        "meta_ephemeris_type": 0,
        "meta_classification_type": "U",
        "meta_norad_cat_id": 32951,
        "meta_element_set_no": 999,
        "meta_rev_at_epoch": 4406,
        "meta_bstar": 0,
        "meta_mean_motion_dot": 4.8e-07,
        "meta_mean_motion_ddot": 0,
        "tle_line1": "1 32951U 08024A   25355.18933576  .00000048  00000+0  00000+0 0  9996",
        "tle_line2": "2 32951   0.0174  59.6193 0002837 215.9312 119.6116  1.00271174 44062"
      },
      "geometry": {
        "type": "Point",
        "coordinates": [
          -172.42595788836906,
          0.014204131166734545
        ]
      }
    },
    {
      "type": "Feature",
      "properties": {
        "norad_id": 33153,
        "name": "INTELSAT 25 (IS-25)",
        "group": "intelsat",
        "lat": -0.6673320618112583,
        "lon": -80.90126943619723,
        "alt_km": 35766.550022257965,
        "timestamp": "2025-12-21T14:40:47.578347+00:00",
        "meta_object_name": "INTELSAT 25 (IS-25)",
        "meta_object_id": "2008-034A",
        "meta_epoch": "2025-12-21T04:15:38.566080",
        "meta_mean_motion": 1.00269824,
        "meta_eccentricity": 0.0004816,
        "meta_inclination": 2.2481,
        "meta_ra_of_asc_node": 82.5595,
        "meta_arg_of_pericenter": 188.3573,
        "meta_mean_anomaly": 211.4785,
        "meta_ephemeris_type": 0,
        "meta_classification_type": "U",
        "meta_norad_cat_id": 33153,
        "meta_element_set_no": 999,
        "meta_rev_at_epoch": 6391,
        "meta_bstar": 0,
        "meta_mean_motion_dot": -2.03e-06,
        "meta_mean_motion_ddot": 0,
        "tle_line1": "1 33153U 08034A   25355.17752970 -.00000203  00000+0  00000+0 0  9992",
        "tle_line2": "2 33153   2.2481  82.5595 0004816 188.3573 211.4785  1.00269824 63911"
      },
      "geometry": {
        "type": "Point",
        "coordinates": [
          -80.90126943619723,
          -0.6673320618112583
        ]
      }
    }
  ]
}